[{"OBJECT_NAME":"STARLINK-4578","OBJECT_ID":"2022-125B","EPOCH":"2026-03-10T00:00:02.999808","MEAN_MOTION":15.62568456,"ECCENTRICITY":0.00020465,"INCLINATION":53.2173,"RA_OF_ASC_NODE":215.6942,"ARG_OF_PERICENTER":23.1029,"MEAN_ANOMALY":169.28,"EPHEMERIS_TYPE":0,"CLASSIFICATION_TYPE":"U","NORAD_CAT_ID":53965,"ELEMENT_SET_NO":999,"REV_AT_EPOCH":584,"BSTAR":0.010109163,"MEAN_MOTION_DOT":0.01005123,"MEAN_MOTION_DDOT":0},{"OBJECT_NAME":"STARLINK-11422 [DTC]","OBJECT_ID":"2024-209F","EPOCH":"2026-03-09T02:37:22.989504","MEAN_MOTION":15.69765396,"ECCENTRICITY":0.00014762,"INCLINATION":53.1574,"RA_OF_ASC_NODE":14.35,"ARG_OF_PERICENTER":53.4212,"MEAN_ANOMALY":306.6941,"EPHEMERIS_TYPE":0,"CLASSIFICATION_TYPE":"U","NORAD_CAT_ID":61944,"ELEMENT_SET_NO":999,"REV_AT_EPOCH":7658,"BSTAR":0.0013738881,"MEAN_MOTION_DOT":0.00169693,"MEAN_MOTION_DDOT":0}]
